OBJECT_NAME,OBJECT_ID,EPOCH,MEAN_MOTION,ECCENTRICITY,INCLINATION,RA_OF_ASC_NODE,ARG_OF_PERICENTER,MEAN_ANOMALY,EPHEMERIS_TYPE,CLASSIFICATION_TYPE,NORAD_CAT_ID,ELEMENT_SET_NO,REV_AT_EPOCH,BSTAR,MEAN_MOTION_DOT,MEAN_MOTION_DDOT
ONEWEB-0473,2022-012AH,2026-06-22T14:22:52.474944,13.10261819,.00018217,87.8826,35.1985,79.9829,280.1504,0,U,51653,999,21001,.17259596E-2,.614E-5,0
ONEWEB-0474,2022-012AJ,2026-06-22T14:10:41.731392,13.10298226,.00015075,87.8837,35.1849,77.4878,282.6418,0,U,51654,999,21000,.70166891E-3,.257E-5,0
ONEWEB-0475,2022-012AK,2026-06-22T11:05:11.910624,13.17649404,.00013644,87.9133,4.8231,74.5843,285.5439,0,U,51655,999,21438,.11815748E-3,.59E-6,0
ONEWEB-0490,2022-138A,2026-06-22T14:14:29.461056,13.19725301,.0001746,87.9182,303.8900,103.7340,256.3987,0,U,54113,999,17754,-.4726561E-5,.11E-6,0
ONEWEB-0492,2022-138B,2026-06-22T14:50:53.014560,13.19726875,.00019238,87.9175,303.8860,107.4107,252.7236,0,U,54114,999,17755,.26876094E-3,.121E-5,0
ONEWEB-0495,2022-138C,2026-06-22T14:19:02.359776,13.19725597,.00014145,87.9178,303.8929,115.7444,244.3835,0,U,54115,999,17753,.13197586E-3,.66E-6,0
ONEWEB-0497,2022-138D,2026-06-22T18:15:35.409600,13.19725219,.00018469,87.9185,303.8530,101.9502,258.1838,0,U,54116,999,17754,.89141348E-4,.49E-6,0
ONEWEB-0499,2022-138E,2026-06-22T14:13:20.387712,13.19727626,.0001647,87.9175,303.8949,101.1634,258.9684,0,U,54117,999,17753,.17626428E-3,.84E-6,0
ONEWEB-0500,2022-138F,2026-06-22T14:16:45.851232,13.19724797,.00020127,87.9185,303.8891,100.5942,259.5417,0,U,54118,999,17754,.19701953E-3,.92E-6,0
ONEWEB-0501,2022-138G,2026-06-22T14:59:59.060832,13.19724123,.00015253,87.9182,303.8826,108.3833,251.7466,0,U,54119,999,17752,.11655821E-3,.6E-6,0
ONEWEB-0502,2022-138H,2026-06-22T18:17:51.354816,13.19725061,.00016388,87.9183,303.8444,99.6353,260.4965,0,U,54120,999,17756,.17563986E-3,.83E-6,0
ONEWEB-0503,2022-138J,2026-06-22T14:23:35.298240,13.19725810,.00018708,87.9187,303.8826,91.2052,268.9295,0,U,54121,999,17753,.2402558E-3,.109E-5,0
ONEWEB-0504,2022-138K,2026-06-22T15:54:34.375968,13.19725299,.00016435,87.9183,303.8748,98.9975,261.1344,0,U,54122,999,17755,-.71927595E-4,-.16E-6,0
ONEWEB-0505,2022-138L,2026-06-22T10:22:29.413632,13.19726226,.00014528,87.9180,303.9217,105.6046,254.5247,0,U,54123,999,17750,-.6029253E-5,.11E-6,0
ONEWEB-0506,2022-138M,2026-06-22T15:13:37.322400,13.19724430,.00015998,87.9186,303.8785,104.8134,255.3176,0,U,54124,999,17752,.15177029E-3,.74E-6,0
ONEWEB-0507,2022-138N,2026-06-22T15:43:11.916192,13.19725693,.00017472,87.9175,303.8861,104.2376,255.8951,0,U,54125,999,17757,.12443683E-3,.63E-6,0
ONEWEB-0508,2022-138P,2026-06-22T08:21:56.212992,13.19724670,.00016647,87.9173,303.9466,112.1740,247.9569,0,U,54126,999,17751,.90274049E-4,.49E-6,0
ONEWEB-0509,2022-138Q,2026-06-22T15:02:14.687232,13.19726022,.00017635,87.9186,303.8814,102.5666,257.5664,0,U,54127,999,17752,.2900237E-3,.129E-5,0
ONEWEB-0510,2022-138R,2026-06-22T12:15:28.493280,13.20773387,.00023392,87.9195,273.3749,92.7470,267.3931,0,U,54128,999,17998,-.29821357E-4,.1E-7,0
ONEWEB-0511,2022-138S,2026-06-22T14:57:42.021792,13.19726738,.00016996,87.9181,303.8845,92.2958,267.8369,0,U,54129,999,17755,.22655762E-3,.104E-5,0
ONEWEB-0512,2022-138T,2026-06-22T14:46:19.543872,13.19725758,.00015463,87.9174,303.8908,100.2029,259.9278,0,U,54130,999,17752,.29306371E-3,.13E-5,0
ONEWEB-0513,2022-138U,2026-06-22T14:51:11.821248,13.20269428,.00009789,87.9181,303.8336,87.5040,272.6205,0,U,54131,999,17743,.16915523E-3,.81E-6,0
ONEWEB-0514,2022-138V,2026-06-22T15:09:04.396896,13.19725757,.00019936,87.9183,303.8820,96.5383,263.5976,0,U,54132,999,17754,.23893063E-3,.109E-5,0
ONEWEB-0515,2022-138W,2026-06-22T17:23:21.487200,13.20771241,.00028093,87.9201,273.3271,106.0053,254.1390,0,U,54133,999,18003,-.71874376E-4,-.16E-6,0
ONEWEB-0516,2022-138X,2026-06-22T18:11:01.411008,13.19725813,.00018978,87.9174,303.8626,104.3222,255.8122,0,U,54134,999,17756,.69391709E-4,.41E-6,0
ONEWEB-0517,2022-138Y,2026-06-22T15:52:17.388768,13.19724911,.00018676,87.9181,303.8745,90.2094,269.9253,0,U,54135,999,17755,.21157572E-4,.21E-6,0
ONEWEB-0518,2022-138Z,2026-06-22T14:30:24.549120,13.19728564,.00019326,87.9176,303.8952,105.4708,254.6638,0,U,54136,999,17754,.2279491E-3,.104E-5,0
ONEWEB-0519,2022-138AA,2026-06-22T15:06:47.970432,13.19726743,.00018649,87.9181,303.8818,93.3068,266.8279,0,U,54137,999,17755,.11007981E-3,.57E-6,0
ONEWEB-0520,2022-138AB,2026-06-22T14:07:40.176480,13.19725931,.00016565,87.9181,303.8900,105.2085,254.9231,0,U,54138,999,17753,-.25144023E-4,.3E-7,0
ONEWEB-0521,2022-138AC,2026-06-22T14:55:25.481280,13.19725575,.00019257,87.9184,303.8719,92.5039,267.6314,0,U,54139,999,17748,.84122198E-4,.47E-6,0
