ONEWEB-0473             
1 51653U 22012AH  26173.59921846  .00000614  00000+0  17260-2 0  9998
2 51653  87.8826  35.1985 0001821  79.9829 280.1504 13.10261819210014
ONEWEB-0474             
1 51654U 22012AJ  26173.59076078  .00000257  00000+0  70167-3 0  9996
2 51654  87.8837  35.1849 0001507  77.4878 282.6418 13.10298226210006
ONEWEB-0475             
1 51655U 22012AK  26173.46194341  .00000059  00000+0  11816-3 0  9993
2 51655  87.9133   4.8231 0001364  74.5843 285.5439 13.17649404214381
ONEWEB-0490             
1 54113U 22138A   26173.59339654  .00000011  00000+0 -47266-5 0  9995
2 54113  87.9182 303.8900 0001746 103.7340 256.3987 13.19725301177546
ONEWEB-0492             
1 54114U 22138B   26173.61866915  .00000121  00000+0  26876-3 0  9997
2 54114  87.9175 303.8860 0001923 107.4107 252.7236 13.19726875177558
ONEWEB-0495             
1 54115U 22138C   26173.59655509  .00000066  00000+0  13198-3 0  9991
2 54115  87.9178 303.8929 0001414 115.7444 244.3835 13.19725597177539
ONEWEB-0497             
1 54116U 22138D   26173.76082650  .00000049  00000+0  89141-4 0  9995
2 54116  87.9185 303.8530 0001846 101.9502 258.1838 13.19725219177545
ONEWEB-0499             
1 54117U 22138E   26173.59259708  .00000084  00000+0  17626-3 0  9994
2 54117  87.9175 303.8949 0001647 101.1634 258.9684 13.19727626177536
ONEWEB-0500             
1 54118U 22138F   26173.59497513  .00000092  00000+0  19702-3 0  9999
2 54118  87.9185 303.8891 0002012 100.5942 259.5417 13.19724797177544
ONEWEB-0501             
1 54119U 22138G   26173.62498913  .00000060  00000+0  11656-3 0  9994
2 54119  87.9182 303.8826 0001525 108.3833 251.7466 13.19724123177522
ONEWEB-0502             
1 54120U 22138H   26173.76239994  .00000083  00000+0  17564-3 0  9992
2 54120  87.9183 303.8444 0001638  99.6353 260.4965 13.19725061177562
ONEWEB-0503             
1 54121U 22138J   26173.59971410  .00000109  00000+0  24026-3 0  9990
2 54121  87.9187 303.8826 0001870  91.2052 268.9295 13.19725810177531
ONEWEB-0504             
1 54122U 22138K   26173.66289787 -.00000016  00000+0 -71928-4 0  9991
2 54122  87.9183 303.8748 0001643  98.9975 261.1344 13.19725299177550
ONEWEB-0505             
1 54123U 22138L   26173.43228488  .00000011  00000+0 -60293-5 0  9996
2 54123  87.9180 303.9217 0001452 105.6046 254.5247 13.19726226177507
ONEWEB-0506             
1 54124U 22138M   26173.63445975  .00000074  00000+0  15177-3 0  9998
2 54124  87.9186 303.8785 0001599 104.8134 255.3176 13.19724430177521
ONEWEB-0507             
1 54125U 22138N   26173.65499903  .00000063  00000+0  12444-3 0  9993
2 54125  87.9175 303.8861 0001747 104.2376 255.8951 13.19725693177575
ONEWEB-0508             
1 54126U 22138P   26173.34856728  .00000049  00000+0  90274-4 0  9994
2 54126  87.9173 303.9466 0001664 112.1740 247.9569 13.19724670177512
ONEWEB-0509             
1 54127U 22138Q   26173.62655888  .00000129  00000+0  29002-3 0  9999
2 54127  87.9186 303.8814 0001763 102.5666 257.5664 13.19726022177520
ONEWEB-0510             
1 54128U 22138R   26173.51074645  .00000001  00000+0 -29821-4 0  9994
2 54128  87.9195 273.3749 0002339  92.7470 267.3931 13.20773387179988
ONEWEB-0511             
1 54129U 22138S   26173.62340303  .00000104  00000+0  22656-3 0  9995
2 54129  87.9181 303.8845 0001699  92.2958 267.8369 13.19726738177551
ONEWEB-0512             
1 54130U 22138T   26173.61550398  .00000130  00000+0  29306-3 0  9991
2 54130  87.9174 303.8908 0001546 100.2029 259.9278 13.19725758177524
ONEWEB-0513             
1 54131U 22138U   26173.61888682  .00000081  00000+0  16916-3 0  9990
2 54131  87.9181 303.8336 0000978  87.5040 272.6205 13.20269428177437
ONEWEB-0514             
1 54132U 22138V   26173.63130089  .00000109  00000+0  23893-3 0  9997
2 54132  87.9183 303.8820 0001993  96.5383 263.5976 13.19725757177542
ONEWEB-0515             
1 54133U 22138W   26173.72455425 -.00000016  00000+0 -71874-4 0  9994
2 54133  87.9201 273.3271 0002809 106.0053 254.1390 13.20771241180038
ONEWEB-0516             
1 54134U 22138X   26173.75765522  .00000041  00000+0  69392-4 0  9998
2 54134  87.9174 303.8626 0001897 104.3222 255.8122 13.19725813177563
ONEWEB-0517             
1 54135U 22138Y   26173.66131237  .00000021  00000+0  21158-4 0  9995
2 54135  87.9181 303.8745 0001867  90.2094 269.9253 13.19724911177559
ONEWEB-0518             
1 54136U 22138Z   26173.60445080  .00000104  00000+0  22795-3 0  9993
2 54136  87.9176 303.8952 0001932 105.4708 254.6638 13.19728564177543
ONEWEB-0519             
1 54137U 22138AA  26173.62972188  .00000057  00000+0  11008-3 0  9992
2 54137  87.9181 303.8818 0001864  93.3068 266.8279 13.19726743177553
ONEWEB-0520             
1 54138U 22138AB  26173.58865945  .00000003  00000+0 -25144-4 0  9999
2 54138  87.9181 303.8900 0001656 105.2085 254.9231 13.19725931177539
ONEWEB-0521             
1 54139U 22138AC  26173.62182270  .00000047  00000+0  84122-4 0  9996
2 54139  87.9184 303.8719 0001925  92.5039 267.6314 13.19725575177488
